[{"OBJECT_NAME":"ONEWEB-0434","OBJECT_ID":"2022-012K","EPOCH":"2026-03-09T22:08:39.490656","MEAN_MOTION":13.1037589,"ECCENTRICITY":0.00013778,"INCLINATION":87.8776,"RA_OF_ASC_NODE":56.054,"ARG_OF_PERICENTER":67.3836,"MEAN_ANOMALY":292.7437,"EPHEMERIS_TYPE":0,"CLASSIFICATION_TYPE":"U","NORAD_CAT_ID":51631,"ELEMENT_SET_NO":999,"REV_AT_EPOCH":19632,"BSTAR":-0.0010878113,"MEAN_MOTION_DOT":-3.67e-6,"MEAN_MOTION_DDOT":0},{"OBJECT_NAME":"DELTA 1 DEB","OBJECT_ID":"1975-052EM","EPOCH":"2026-03-09T22:14:25.171008","MEAN_MOTION":13.268989,"ECCENTRICITY":0.01187124,"INCLINATION":99.8505,"RA_OF_ASC_NODE":224.5635,"ARG_OF_PERICENTER":302.0692,"MEAN_ANOMALY":184.9338,"EPHEMERIS_TYPE":0,"CLASSIFICATION_TYPE":"U","NORAD_CAT_ID":21453,"ELEMENT_SET_NO":999,"REV_AT_EPOCH":68560,"BSTAR":0.0006944758,"MEAN_MOTION_DOT":2.79e-6,"MEAN_MOTION_DDOT":0}]
